TISAT 1                 
1 36799U 10035E   26068.75703561  .00024554  00000+0  91005-3 0  9996
2 36799  98.0645   6.8512 0001343 159.3030 200.8262 15.27628633852505
STARLINK-30774          
1 58625U 23203H   26068.37429725 -.00000127  00000+0  49106-5 0  9992
2 58625  43.0040  68.8290 0001245 274.6375  85.4334 15.27574396123516
